NORAD_CAT_ID,OBJECT_NAME,OBJECT_TYPE,EPOCH,MEAN_MOTION,ECCENTRICITY,INCLINATION,RA_OF_ASC_NODE,ARG_OF_PERICENTER,MEAN_ANOMALY,BSTAR,MEAN_MOTION_DOT,MEAN_MOTION_DDOT,TLE_LINE0,TLE_LINE1,TLE_LINE2,SEMIMAJOR_AXIS,PERIOD,APOGEE,PERIGEE,DECAYED
52611.0,STARLINK-3980,PAYLOAD,2023-09-06 12:09:16,15.08840049,0.0001285,53.2177,72.5391,88.8235,271.2905,0.00012447,1.694e-05,0.0,0 STARLINK-3980,1 52611U 22052P   23249.50643919  .00001694  00000-0  12447-3 0  9994,2 52611  53.2177  72.5391 0001285  88.8235 271.2905 15.08840049 72621,6917.88,95.438,540.634,538.856,0.0
52611.0,STARLINK-3980,PAYLOAD,2023-09-06 18:30:48,15.08841346,0.000127,53.2176,71.3496,89.1911,270.9226,0.00013029,1.786e-05,0.0,0 STARLINK-3980,1 52611U 22052P   23249.77139853  .00001786  00000-0  13029-3 0  9999,2 52611  53.2176  71.3496 0001270  89.1911 270.9226 15.08841346 73031,6917.876,95.437,540.62,538.863,0.0
52611.0,STARLINK-3980,PAYLOAD,2023-09-07 12:00:03,15.08843085,0.0001409,53.2177,68.0803,84.935,275.1803,8.2819e-05,1.03e-05,0.0,0 STARLINK-3980,1 52611U 22052P   23250.50003761  .00001030  00000-0  82819-4 0  9996,2 52611  53.2177  68.0803 0001409  84.9350 275.1803 15.08843085 72771,6917.871,95.437,540.711,538.761,0.0
52611.0,STARLINK-3980,PAYLOAD,2023-09-07 21:32:21,15.08847931,0.000142,53.2166,66.2954,87.8702,272.2453,0.00011853,1.599e-05,0.0,0 STARLINK-3980,1 52611U 22052P   23250.89747261  .00001599  00000-0  11853-3 0  9997,2 52611  53.2166  66.2954 0001420  87.8702 272.2453 15.08847931 72832,6917.856,95.437,540.703,538.739,0.0
52611.0,STARLINK-3980,PAYLOAD,2023-09-08 18:12:22,15.08838787,0.0001438,53.2184,62.4284,109.7435,250.3712,2.7207e-05,1.45e-06,0.0,0 STARLINK-3980,1 52611U 22052P   23251.75859947  .00000145  00000-0  27207-4 0  9995,2 52611  53.2184  62.4284 0001438 109.7435 250.3712 15.08838787 73332,6917.884,95.438,540.744,538.754,0.0
52611.0,STARLINK-3980,PAYLOAD,2023-09-09 10:06:14,15.08837017,0.0001223,53.2181,59.4535,105.9848,254.1278,4.4472e-05,4.2e-06,0.0,0 STARLINK-3980,1 52611U 22052P   23252.42100052  .00000420  00000-0  44472-4 0  9995,2 52611  53.2181  59.4535 0001223 105.9848 254.1278 15.08837017 73066,6917.89,95.438,540.601,538.908,0.0
52611.0,STARLINK-3980,PAYLOAD,2023-09-09 18:03:12,15.08753095,0.0001903,53.2185,57.9669,103.2011,256.9194,0.0013568,0.0002132,0.0,0 STARLINK-3980,1 52611U 22052P   23252.75222259  .00021320  00000-0  13568-2 0  9997,2 52611  53.2185  57.9669 0001903 103.2011 256.9194 15.08753095 73485,6918.146,95.443,541.328,538.695,0.0
52611.0,STARLINK-3980,PAYLOAD,2023-09-10 11:32:24,15.08835025,0.0001548,53.2197,54.6988,106.2943,253.8219,5.2312e-05,5.45e-06,0.0,0 STARLINK-3980,1 52611U 22052P   23253.48084303  .00000545  00000-0  52312-4 0  9992,2 52611  53.2197  54.6988 0001548 106.2943 253.8219 15.08835025 73598,6917.896,95.438,540.831,538.69,0.0
52611.0,STARLINK-3980,PAYLOAD,2023-09-11 03:26:16,15.08837183,0.0001401,53.2196,51.7265,96.5462,263.569,3.832e-05,3.22e-06,0.0,0 STARLINK-3980,1 52611U 22052P   23254.14324432  .00000322  00000-0  38320-4 0  9992,2 52611  53.2196  51.7265 0001401  96.5462 263.5690 15.08837183 73327,6917.889,95.438,540.723,538.785,0.0
52611.0,STARLINK-3980,PAYLOAD,2023-09-11 17:44:44,15.08841167,0.0001326,53.2196,49.0504,92.4892,267.6252,0.00016338,2.313e-05,0.0,0 STARLINK-3980,1 52611U 22052P   23254.73939898  .00002313  00000-0  16338-3 0  9991,2 52611  53.2196  49.0504 0001326  92.4892 267.6252 15.08841167 73787,6917.877,95.437,540.659,538.825,0.0
52611.0,STARLINK-3980,PAYLOAD,2023-09-12 09:38:35,15.08836114,0.0001308,53.2194,46.0762,80.638,279.476,8.5632e-05,1.075e-05,0.0,0 STARLINK-3980,1 52611U 22052P   23255.40180487  .00001075  00000-0  85632-4 0  9996,2 52611  53.2194  46.0762 0001308  80.6380 279.4760 15.08836114 73881,6917.892,95.438,540.662,538.852,0.0
52611.0,STARLINK-3980,PAYLOAD,2023-09-12 17:35:31,15.08844735,0.0001328,53.2188,44.5883,81.5976,278.5167,0.00011729,1.579e-05,0.0,0 STARLINK-3980,1 52611U 22052P   23255.73299976  .00001579  00000-0  11729-3 0  9990,2 52611  53.2188  44.5883 0001328  81.5976 278.5167 15.08844735 73939,6917.866,95.437,540.65,538.812,0.0
52611.0,STARLINK-3980,PAYLOAD,2023-09-13 03:07:49,15.08847008,0.0001317,53.2187,42.8036,84.9555,275.1587,0.0001236,1.68e-05,0.0,0 STARLINK-3980,1 52611U 22052P   23256.13043783  .00001680  00000-0  12360-3 0  9993,2 52611  53.2187  42.8036 0001317  84.9555 275.1587 15.08847008 73628,6917.859,95.437,540.635,538.813,0.0
52611.0,STARLINK-3980,PAYLOAD,2023-09-13 17:26:17,15.08856698,0.0001405,53.2181,40.1273,83.8106,276.3047,0.00018499,2.659e-05,0.0,0 STARLINK-3980,1 52611U 22052P   23256.72659017  .00002659  00000-0  18499-3 0  9997,2 52611  53.2181  40.1273 0001405  83.8106 276.3047 15.08856698 73713,6917.829,95.436,540.666,538.722,0.0
52611.0,STARLINK-3980,PAYLOAD,2023-09-14 09:20:10,15.08831372,0.0001499,53.2179,37.1523,86.2776,273.8387,-0.00010751,-1.998e-05,0.0,0 STARLINK-3980,1 52611U 22052P   23257.38900641 -.00001998  00000-0 -10751-3 0  9992,2 52611  53.2179  37.1523 0001499  86.2776 273.8387 15.08831372 74180,6917.907,95.438,540.809,538.735,0.0
52611.0,STARLINK-3980,PAYLOAD,2023-09-14 15:41:43,15.08828668,0.0001357,53.2182,35.9628,83.8883,276.2264,-0.0001121,-2.071e-05,0.0,0 STARLINK-3980,1 52611U 22052P   23257.65396992 -.00002071  00000-0 -11210-3 0  9994,2 52611  53.2182  35.9628 0001357  83.8883 276.2264 15.08828668 73859,6917.915,95.438,540.719,538.841,0.0
52611.0,STARLINK-3980,PAYLOAD,2023-09-15 12:21:43,15.08842856,0.0001465,53.2181,32.0974,69.0883,291.0265,0.00012721,1.737e-05,0.0,0 STARLINK-3980,1 52611U 22052P   23258.51508744  .00001737  00000-0  12721-3 0  9994,2 52611  53.2181  32.0974 0001465  69.0883 291.0265 15.08842856 73981,6917.872,95.437,540.75,538.723,0.0
52611.0,STARLINK-3980,PAYLOAD,2023-09-15 15:32:29,15.08852368,0.0001558,53.2185,31.5029,67.7676,292.3481,0.00023459,3.449e-05,0.0,0 STARLINK-3980,1 52611U 22052P   23258.64756369  .00003449  00000-0  23459-3 0  9998,2 52611  53.2185  31.5029 0001558  67.7676 292.3481 15.08852368 74375,6917.843,95.437,540.785,538.63,0.0
52611.0,STARLINK-3980,PAYLOAD,2023-09-16 09:01:44,15.08840692,0.0001377,53.2193,28.2327,60.2113,299.9016,0.0002095,3.048e-05,0.0,0 STARLINK-3980,1 52611U 22052P   23259.37621138  .00003048  00000-0  20950-3 0  9992,2 52611  53.2193  28.2327 0001377  60.2113 299.9016 15.08840692 74487,6917.878,95.438,540.696,538.791,0.0
52611.0,STARLINK-3980,PAYLOAD,2023-09-16 13:47:53,15.08851239,0.0001472,53.2186,27.3404,67.0721,293.0427,0.00037962,5.761e-05,0.0,0 STARLINK-3980,1 52611U 22052P   23259.57492806  .00005761  00000-0  37962-3 0  9997,2 52611  53.2186  27.3404 0001472  67.0721 293.0427 15.08851239 74144,6917.846,95.437,540.729,538.693,0.0
52611.0,STARLINK-3980,PAYLOAD,2023-09-16 15:23:16,15.08853417,0.0001452,53.2187,27.0431,66.4695,293.645,0.0005363,8.261e-05,0.0,0 STARLINK-3980,1 52611U 22052P   23259.64116705  .00008261  00000-0  53630-3 0  9994,2 52611  53.2187  27.0431 0001452  66.4695 293.6450 15.08853417 74527,6917.839,95.437,540.709,538.7,0.0
52611.0,STARLINK-3980,PAYLOAD,2023-09-17 13:38:40,15.08865723,0.0001613,53.2193,22.878,94.5311,265.5866,0.0017401,0.00027534,0.0,0 STARLINK-3980,1 52611U 22052P   23260.56852639  .00027534  00000-0  17401-2 0  9999,2 52611  53.2193  22.8780 0001613  94.5311 265.5866 15.08865723 74296,6917.802,95.436,540.783,538.551,0.0
52611.0,STARLINK-3980,PAYLOAD,2023-09-17 15:14:03,15.08864811,0.000152,53.2192,22.5808,79.7746,280.3418,0.001564,0.00024708,0.0,0 STARLINK-3980,1 52611U 22052P   23260.63476628  .00024708  00000-0  15640-2 0  9990,2 52611  53.2192  22.5808 0001520  79.7746 280.3418 15.08864811 74674,6917.805,95.436,540.721,538.618,0.0
52611.0,STARLINK-3980,PAYLOAD,2023-09-18 08:43:18,15.08841307,0.0001301,53.219,19.3127,67.9449,292.1681,0.0005011,7.696e-05,0.0,0 STARLINK-3980,1 52611U 22052P   23261.36340635  .00007696  00000-0  50110-3 0  9998,2 52611  53.2190  19.3127 0001301  67.9449 292.1681 15.08841307 74786,6917.876,95.437,540.641,538.841,0.0
52611.0,STARLINK-3980,PAYLOAD,2023-09-18 13:29:27,15.08848498,0.0001355,53.2185,18.4201,76.5875,283.5268,0.0015749,0.00024871,0.0,0 STARLINK-3980,1 52611U 22052P   23261.56212702  .00024871  00000-0  15749-2 0  9995,2 52611  53.2185  18.4201 0001355  76.5875 283.5268 15.08848498 74447,6917.854,95.437,540.657,538.782,0.0
52611.0,STARLINK-3980,PAYLOAD,2023-09-18 18:15:36,15.08866166,0.0001385,53.2185,17.5274,84.9459,275.1691,0.0017315,0.00027396,0.0,0 STARLINK-3980,1 52611U 22052P   23261.76084312  .00027396  00000-0  17315-2 0  9997,2 52611  53.2185  17.5274 0001385  84.9459 275.1691 15.08866166 74473,6917.8,95.436,540.624,538.707,0.0
52611.0,STARLINK-3980,PAYLOAD,2023-09-19 18:06:23,15.08874831,0.000146,53.2177,13.0694,86.2479,273.868,0.0015082,0.00023819,0.0,0 STARLINK-3980,1 52611U 22052P   23262.75443689  .00023819  00000-0  15082-2 0  9998,2 52611  53.2177  13.0694 0001460  86.2479 273.8680 15.08874831 74990,6917.774,95.435,540.649,538.629,0.0
52611.0,STARLINK-3980,PAYLOAD,2023-09-20 06:49:29,15.08816501,0.0001191,53.2181,10.6904,88.8641,271.2488,0.00018378,2.636e-05,0.0,0 STARLINK-3980,1 52611U 22052P   23263.28436940  .00002636  00000-0  18378-3 0  9995,2 52611  53.2181  10.6904 0001191  88.8641 271.2488 15.08816501 75070,6917.952,95.439,540.641,538.993,0.0
52611.0,STARLINK-3980,PAYLOAD,2023-09-20 13:11:02,15.08802065,0.0001463,53.2176,9.5028,60.5113,299.6025,0.00087638,0.00013673,0.0,0 STARLINK-3980,1 52611U 22052P   23263.54933888  .00013673  00000-0  87638-3 0  9995,2 52611  53.2176   9.5028 0001463  60.5113 299.6025 15.08802065 74745,6917.996,95.44,540.873,538.849,0.0
52611.0,STARLINK-3980,PAYLOAD,2023-09-20 14:46:26,15.0880186,0.0001537,53.2174,9.2055,58.0927,302.0214,0.0011047,0.00017319,0.0,0 STARLINK-3980,1 52611U 22052P   23263.61558084  .00017319  00000-0  11047-2 0  9995,2 52611  53.2174   9.2055 0001537  58.0927 302.0214 15.08801860 75121,6917.997,95.44,540.925,538.799,0.0
